STARLINK-30331          
1 57740U 23131J   26201.35207318 -.00000528  00000+0 -96571-5 0  9992
2 57740  43.0017  70.1991 0000811 282.5253  77.5508 15.27578101161067
STARLINK-30364          
1 57741U 23131K   26201.12506580  .00000092  00000+0  12866-4 0  9999
2 57741  43.0025 144.2817 0001182 269.2220  90.8496 15.27577778160179
STARLINK-30308          
1 57742U 23131L   26201.21101253 -.00000345  00000+0 -30344-5 0  9993
2 57742  43.0034 144.0673 0001044 267.2784  92.7948 15.27575184160192
STARLINK-30361          
1 57743U 23131M   26201.85074159  .00000136  00000+0  14443-4 0  9995
2 57743  43.0011 140.2649 0000828 262.2587  97.8171 15.27577717160271
STARLINK-30363          
1 57744U 23131N   26201.20641788  .00000085  00000+0  12616-4 0  9996
2 57744  43.0041 129.5602 0001386 263.0710  96.9984 15.27573397160352
STARLINK-30362          
1 57745U 23131P   26201.56749492  .00000387  00000+0  23589-4 0  9993
2 57745  43.0029 142.4326 0001412 272.8186  87.2504 15.27578234160234
STARLINK-30350          
1 57746U 23131Q   26201.21149950 -.00000251  00000+0  41839-6 0  9990
2 57746  43.0030 140.6501 0001182 259.7519 100.3199 15.27579192160220
STARLINK-30307          
1 57747U 23131R   26201.54950603  .00000661  00000+0  33532-4 0  9995
2 57747  43.0036 142.2999 0000861 267.4871  92.5882 15.27579290160237
STARLINK-30356          
1 57748U 23131S   26201.18402621  .00002809  00000+0  11155-3 0  9990
2 57748  43.0025 143.8645 0000789 265.9306  94.1455 15.27583747160186
STARLINK-30366          
1 57749U 23131T   26200.86371486  .00000553  00000+0  30975-4 0  9995
2 57749  43.0021 150.0356 0001548 274.2074  85.8600 15.25905192160089
STARLINK-30357          
1 57750U 23131U   26201.25628297  .00000921  00000+0  43007-4 0  9995
2 57750  43.0027 151.2012 0001263 260.7140  99.3569 15.27578707160092
STARLINK-30370          
1 57751U 23131V   26201.09841177  .00013798  00000+0  43646-3 0  9996
2 57751  43.0003 127.0435 0003437 196.5012 163.5730 15.32635557160374
STARLINK-30368          
1 57752U 23131W   26201.55591242  .00001483  00000+0  63406-4 0  9998
2 57752  43.0033 142.3193 0001186 266.8697  93.2019 15.27587551160236
STARLINK-30343          
1 57753U 23131X   26201.57935273  .00000241  00000+0  18302-4 0  9993
2 57753  43.0028 149.3293 0001485 272.2591  87.8090 15.27578354160155
STARLINK-30397          
1 57771U 23134A   26201.28913275 -.00002634  00000+0 -86230-4 0  9997
2 57771  43.0029 165.8590 0001008 269.6384  90.4352 15.27581481159783
STARLINK-30354          
1 57772U 23134B   26201.96934113  .00000653  00000+0  33278-4 0  9998
2 57772  43.0023 164.9071 0001639 276.5708  83.4957 15.27575943159856
STARLINK-30383          
1 57773U 23134C   26201.24753529  .00001779  00000+0  74202-4 0  9992
2 57773  43.0012 168.9564 0002433 299.1085  60.9523 15.27570640159744
STARLINK-30384          
1 57774U 23134D   26201.31676466  .00000399  00000+0  24034-4 0  9990
2 57774  43.0028 168.6179 0001359 266.4480  93.6216 15.27577226159753
STARLINK-30305          
1 57775U 23134E   26201.29298482  .00000499  00000+0  27664-4 0  9999
2 57775  43.0035 165.8849 0001576 284.2531  75.8146 15.27577487159787
STARLINK-30360          
1 57776U 23134F   26201.29426944  .00000341  00000+0  21930-4 0  9992
2 57776  43.0036 165.8940 0001480 272.8471  87.2211 15.27577109159782
STARLINK-30355          
1 57777U 23134G   26201.28092624 -.00000740  00000+0 -17381-4 0  9996
2 57777  43.0010 169.1748 0000938 261.5017  98.5729 15.27574337159730
STARLINK-30385          
1 57778U 23134H   26201.57369837 -.00000151  00000+0  40227-5 0  9993
2 57778  43.0044 152.5442 0000951 260.9492  99.1252 15.27574666159801
STARLINK-30359          
1 57779U 23134J   26200.93397407 -.00000070  00000+0  69880-5 0  9993
2 57779  43.0037 156.3806 0001404 276.1933  83.8759 15.27575787159866
STARLINK-30380          
1 57780U 23134K   26201.26728773  .00000114  00000+0  13657-4 0  9994
2 57780  43.0014 165.6809 0000817 265.0870  94.9888 15.27575314159786
STARLINK-30369          
1 57781U 23134L   26201.59036098 -.00000118  00000+0  52479-5 0  9994
2 57781  43.0059 163.7998 0001571 270.4658  89.6014 15.27576024159833
STARLINK-30376          
1 57782U 23134M   26201.58008200  .00001213  00000+0  53581-4 0  9998
2 57782  43.0016 163.7385 0001282 269.2177  90.8527 15.27578269159834
STARLINK-30389          
1 57783U 23134N   26201.24623259  .00000768  00000+0  37420-4 0  9997
2 57783  43.0023 168.9438 0001469 268.3492  91.7191 15.27577882159743
STARLINK-30388          
1 57784U 23134P   26201.58393852 -.00001078  00000+0 -29644-4 0  9994
2 57784  43.0021 163.7643 0001669 263.6682  96.3979 15.27571372159837
STARLINK-30381          
1 57785U 23134Q   26201.27498314  .00000252  00000+0  18694-4 0  9994
2 57785  43.0020 165.6538 0001015 268.9357  91.1378 15.27568230159782
STARLINK-30382          
1 57786U 23134R   26201.31468506  .00001706  00000+0  71511-4 0  9992
2 57786  43.0012 165.1853 0001333 262.2619  97.8081 15.27580113159799
