OBJECT_NAME,OBJECT_ID,EPOCH,MEAN_MOTION,ECCENTRICITY,INCLINATION,RA_OF_ASC_NODE,ARG_OF_PERICENTER,MEAN_ANOMALY,EPHEMERIS_TYPE,CLASSIFICATION_TYPE,NORAD_CAT_ID,ELEMENT_SET_NO,REV_AT_EPOCH,BSTAR,MEAN_MOTION_DOT,MEAN_MOTION_DDOT
STARLINK-30331,2023-131J,2026-07-20T08:26:59.122752,15.27578101,.00008116,43.0017,70.1991,282.5253,77.5508,0,U,57740,999,16106,-.9657108E-5,-.528E-5,0
STARLINK-30364,2023-131K,2026-07-20T03:00:05.685120,15.27577778,.00011826,43.0025,144.2817,269.2220,90.8496,0,U,57741,999,16017,.12866114E-4,.92E-6,0
STARLINK-30308,2023-131L,2026-07-20T05:03:51.482592,15.27575184,.00010445,43.0034,144.0673,267.2784,92.7948,0,U,57742,999,16019,-.3034432E-5,-.345E-5,0
STARLINK-30361,2023-131M,2026-07-20T20:25:04.073376,15.27577717,.00008289,43.0011,140.2649,262.2587,97.8171,0,U,57743,999,16027,.14443068E-4,.136E-5,0
STARLINK-30363,2023-131N,2026-07-20T04:57:14.504832,15.27573397,.00013863,43.0041,129.5602,263.0710,96.9984,0,U,57744,999,16035,.12616443E-4,.85E-6,0
STARLINK-30362,2023-131P,2026-07-20T13:37:11.561088,15.27578234,.0001412,43.0029,142.4326,272.8186,87.2504,0,U,57745,999,16023,.23589E-4,.387E-5,0
STARLINK-30350,2023-131Q,2026-07-20T05:04:33.556800,15.27579192,.00011825,43.0030,140.6501,259.7519,100.3199,0,U,57746,999,16022,.418387E-6,-.251E-5,0
STARLINK-30307,2023-131R,2026-07-20T13:11:17.320992,15.27579290,.0000861,43.0036,142.2999,267.4871,92.5882,0,U,57747,999,16023,.33532E-4,.661E-5,0
STARLINK-30356,2023-131S,2026-07-20T04:24:59.864544,15.27583747,.00007894,43.0025,143.8645,265.9306,94.1455,0,U,57748,999,16018,.11154773E-3,.2809E-4,0
STARLINK-30366,2023-131T,2026-07-19T20:43:44.963904,15.25905192,.00015485,43.0021,150.0356,274.2074,85.8600,0,U,57749,999,16008,.30974793E-4,.553E-5,0
STARLINK-30357,2023-131U,2026-07-20T06:09:02.848608,15.27578707,.00012633,43.0027,151.2012,260.7140,99.3569,0,U,57750,999,16009,.43006786E-4,.921E-5,0
STARLINK-30370,2023-131V,2026-07-20T02:21:42.776928,15.32635557,.00034377,43.0003,127.0435,196.5012,163.5730,0,U,57751,999,16037,.43646265E-3,.13798E-3,0
STARLINK-30368,2023-131W,2026-07-20T13:20:30.833088,15.27587551,.0001186,43.0033,142.3193,266.8697,93.2019,0,U,57752,999,16023,.63406E-4,.1483E-4,0
STARLINK-30343,2023-131X,2026-07-20T13:54:16.075872,15.27578354,.0001485,43.0028,149.3293,272.2591,87.8090,0,U,57753,999,16015,.18302E-4,.241E-5,0
STARLINK-30397,2023-134A,2026-07-20T06:56:21.069600,15.27581481,.00010081,43.0029,165.8590,269.6384,90.4352,0,U,57771,999,15978,-.86229857E-4,-.2634E-4,0
STARLINK-30354,2023-134B,2026-07-20T23:15:51.073632,15.27575943,.00016398,43.0023,164.9071,276.5708,83.4957,0,U,57772,999,15985,.33277503E-4,.653E-5,0
STARLINK-30383,2023-134C,2026-07-20T05:56:27.049056,15.27570640,.00024338,43.0012,168.9564,299.1085,60.9523,0,U,57773,999,15974,.74202113E-4,.1779E-4,0
STARLINK-30384,2023-134D,2026-07-20T07:36:08.466624,15.27577226,.00013598,43.0028,168.6179,266.4480,93.6216,0,U,57774,999,15975,.24033799E-4,.399E-5,0
STARLINK-30305,2023-134E,2026-07-20T07:01:53.888448,15.27577487,.00015763,43.0035,165.8849,284.2531,75.8146,0,U,57775,999,15978,.2766396E-4,.499E-5,0
STARLINK-30360,2023-134F,2026-07-20T07:03:44.879616,15.27577109,.00014801,43.0036,165.8940,272.8471,87.2211,0,U,57776,999,15978,.21930084E-4,.341E-5,0
STARLINK-30355,2023-134G,2026-07-20T06:44:32.027136,15.27574337,.00009387,43.0010,169.1748,261.5017,98.5729,0,U,57777,999,15973,-.17380575E-4,-.74E-5,0
STARLINK-30385,2023-134H,2026-07-20T13:46:07.539168,15.27574666,.0000951,43.0044,152.5442,260.9492,99.1252,0,U,57778,999,15980,.40227E-5,-.151E-5,0
STARLINK-30359,2023-134J,2026-07-19T22:24:55.359648,15.27575787,.00014043,43.0037,156.3806,276.1933,83.8759,0,U,57779,999,15986,.6988008E-5,-.7E-6,0
STARLINK-30380,2023-134K,2026-07-20T06:24:53.659872,15.27575314,.00008171,43.0014,165.6809,265.0870,94.9888,0,U,57780,999,15978,.13657234E-4,.114E-5,0
STARLINK-30369,2023-134L,2026-07-20T14:10:07.188672,15.27576024,.0001571,43.0059,163.7998,270.4658,89.6014,0,U,57781,999,15983,.52479E-5,-.118E-5,0
STARLINK-30376,2023-134M,2026-07-20T13:55:19.084800,15.27578269,.0001282,43.0016,163.7385,269.2177,90.8527,0,U,57782,999,15983,.53581E-4,.1213E-4,0
STARLINK-30389,2023-134N,2026-07-20T05:54:34.495776,15.27577882,.0001469,43.0023,168.9438,268.3492,91.7191,0,U,57783,999,15974,.37420006E-4,.768E-5,0
STARLINK-30388,2023-134P,2026-07-20T14:00:52.288128,15.27571372,.0001669,43.0021,163.7643,263.6682,96.3979,0,U,57784,999,15983,-.29644E-4,-.1078E-4,0
STARLINK-30381,2023-134Q,2026-07-20T06:35:58.543296,15.27568230,.00010152,43.0020,165.6538,268.9357,91.1378,0,U,57785,999,15978,.18694485E-4,.252E-5,0
STARLINK-30382,2023-134R,2026-07-20T07:33:08.789184,15.27580113,.00013335,43.0012,165.1853,262.2619,97.8081,0,U,57786,999,15979,.71510956E-4,.1706E-4,0
